STARLINK-36336          
1 67901U 26035Y   26062.58336806 -.01046129  36768-3 -17695-2 0  9992
2 67901  97.2756 354.4675 0001307 114.1337  47.9270 16.02741017  2826
STARLINK-36876          
1 67902U 26035Z   26062.58336806 -.01043478  36494-3 -17898-2 0  9998
2 67902  97.2758 354.4647 0001480 110.0559  44.1868 16.02501466  2779
STARLINK-36257          
1 67903U 26035AA  26062.58336806 -.01048060  36838-3 -17863-2 0  9995
2 67903  97.2754 354.4651 0001297  96.7311  60.8311 16.02611015  2829
